NORAD_CAT_ID,OBJECT_NAME,OBJECT_TYPE,EPOCH,MEAN_MOTION,ECCENTRICITY,INCLINATION,RA_OF_ASC_NODE,ARG_OF_PERICENTER,MEAN_ANOMALY,BSTAR,MEAN_MOTION_DOT,MEAN_MOTION_DDOT,TLE_LINE0,TLE_LINE1,TLE_LINE2,SEMIMAJOR_AXIS,PERIOD,APOGEE,PERIGEE,DECAYED
54193.0,STARLINK-5263,PAYLOAD,2023-01-24 22:00:00,15.08820577,9.11e-05,53.217,70.7982,83.91799999999999,155.9961,0.0013189,0.00020753,0.0,0 STARLINK-5263,1 54193U 22141AN  23024.91667824  .00020753  00000-0  13189-2 0  9997,2 54193  53.2170  70.7982 0000911  83.9180 155.9961 15.08820577 14166,6917.94,95.439,540.435,539.175,0.0
54193.0,STARLINK-5263,PAYLOAD,2023-01-25 14:00:01,15.08784848,9.38e-05,53.2169,67.807,89.8217,173.2638,0.0031037,0.00049379,0.0,0 STARLINK-5263,1 54193U 22141AN  23025.58334491  .00049379  00000-0  31037-2 0  9999,2 54193  53.2169  67.8070 0000938  89.8217 173.2638 15.08784848 14269,6918.049,95.441,540.563,539.265,0.0
54193.0,STARLINK-5263,PAYLOAD,2023-01-25 22:00:00,15.08795634,9.37e-05,53.2171,66.3088,106.0278,168.6152,0.003173,0.00050511,0.0,0 STARLINK-5263,1 54193U 22141AN  23025.91667824  .00050511  00000-0  31730-2 0  9995,2 54193  53.2171  66.3088 0000937 106.0278 168.6152 15.08795634  1308,6918.016,95.44,540.529,539.2330000000001,0.0
54193.0,STARLINK-5263,PAYLOAD,2023-01-26 06:00:00,15.08855827,9.81e-05,53.2173,64.8131,101.515,184.6885,-0.0014414,-0.00023164,0.0,0 STARLINK-5263,1 54193U 22141AN  23026.25001157 -.00023164  00000-0 -14414-2 0  9990,2 54193  53.2173  64.8131 0000981 101.5150 184.6885 15.08855827 14362,6917.831999999999,95.437,540.376,539.018,0.0
54193.0,STARLINK-5263,PAYLOAD,2023-01-26 14:00:01,15.0881757,9.27e-05,53.2169,63.3177,84.9014,212.9123,0.0023973,0.00038048,0.0,0 STARLINK-5263,1 54193U 22141AN  23026.58334491  .00038048  00000-0  23973-2 0  9991,2 54193  53.2169  63.3177 0000927  84.9014 212.9123 15.08817570  1307,6917.9490000000005,95.439,540.455,539.173,0.0
54193.0,STARLINK-5263,PAYLOAD,2023-01-27 06:00:00,15.08891963,0.0001035,53.2172,60.3241,93.8357,227.1547,-0.0047567,-0.00075305,0.0,0 STARLINK-5263,1 54193U 22141AN  23027.25001157 -.00075305  00000-0 -47567-2 0  9990,2 54193  53.2172  60.3241 0001035  93.8357 227.1547 15.08891963 14513,6917.722,95.434,540.303,538.871,0.0
54193.0,STARLINK-5263,PAYLOAD,2023-01-27 14:00:01,15.08814469,0.0001171999999999,53.2168,58.8285,82.2802,250.3387,0.0014929,0.00023535,0.0,0 STARLINK-5263,1 54193U 22141AN  23027.58334491  .00023535  00000-0  14929-2 0  9998,2 54193  53.2168  58.8285 0001172  82.2802 250.3387 15.08814469  1306,6917.9580000000005,95.439,540.634,539.013,0.0
54193.0,STARLINK-5263,PAYLOAD,2023-01-27 22:00:00,15.08804668,0.0001177999999999,53.2169,57.3304,95.6599,248.5433,0.0038648,0.00061699,0.0,0 STARLINK-5263,1 54193U 22141AN  23027.91667824  .00061699  00000-0  38648-2 0  9991,2 54193  53.2169  57.3304 0001178  95.6599 248.5433 15.08804668 14619,6917.988,95.44,540.668,539.038,0.0
54193.0,STARLINK-5263,PAYLOAD,2023-01-28 09:11:56,15.08837965,0.0001219,53.2185,55.2372,79.7858,280.3271,2.7977e-05,1.57e-06,0.0,0 STARLINK-5263,1 54193U 22141AN  23028.38329073  .00000157  00000-0  27977-4 0  9991,2 54193  53.2185  55.2372 0001219  79.7858 280.3271 15.08837965 14683,6917.887,95.438,540.595,538.908,0.0
54193.0,STARLINK-5263,PAYLOAD,2023-01-28 18:44:14,15.08840496,0.0001141,53.2182,53.4525,94.1008,266.0115,2.324e-05,8.2e-07,0.0,0 STARLINK-5263,1 54193U 22141AN  23028.78072829  .00000082  00000-0  23240-4 0  9995,2 54193  53.2182  53.4525 0001141  94.1008 266.0115 15.08840496 14515,6917.879,95.438,540.533,538.955,0.0
54193.0,STARLINK-5263,PAYLOAD,2023-01-29 10:38:05,15.08849877,0.0001275,53.219,50.477,97.0186,263.0952,3.0695e-05,2.01e-06,0.0,0 STARLINK-5263,1 54193U 22141AN  23029.44312084  .00000201  00000-0  30695-4 0  9994,2 54193  53.2190  50.4770 0001275  97.0186 263.0952 15.08849877 14844,6917.85,95.437,540.597,538.833,0.0
54193.0,STARLINK-5263,PAYLOAD,2023-01-29 18:35:02,15.08836561,0.0001189,53.2201,48.9884,99.8716,260.2411,-1.9875e-05,-6.04e-06,0.0,0 STARLINK-5263,1 54193U 22141AN  23029.77432977 -.00000604  00000-0 -19875-4 0  9990,2 54193  53.2201  48.9884 0001189  99.8716 260.2411 15.08836561 14898,6917.891,95.438,540.578,538.933,0.0
54193.0,STARLINK-5263,PAYLOAD,2023-01-30 07:18:07,15.08837075,0.0001402,53.2187,46.6134,86.6925,273.4227,-3.2357e-05,-8.03e-06,0.0,0 STARLINK-5263,1 54193U 22141AN  23030.30425237 -.00000803  00000-0 -32357-4 0  9993,2 54193  53.2187  46.6134 0001402  86.6925 273.4227 15.08837075 14744,6917.889,95.438,540.724,538.784,0.0
54193.0,STARLINK-5263,PAYLOAD,2023-01-30 18:25:49,15.08840056,0.0001426,53.2191,44.5313,88.2568,271.8588,5.8362e-06,-1.95e-06,0.0,0 STARLINK-5263,1 54193U 22141AN  23030.76792892 -.00000195  00000-0  58362-5 0  9995,2 54193  53.2191  44.5313 0001426  88.2568 271.8588 15.08840056 14815,6917.88,95.438,540.732,538.759,0.0
54193.0,STARLINK-5263,PAYLOAD,2023-01-31 00:47:21,15.08842216,0.0001336,53.2183,43.3425,86.657,273.4575,1.0971e-05,-1.13e-06,0.0,0 STARLINK-5263,1 54193U 22141AN  23031.03288679 -.00000113  00000-0  10971-4 0  9992,2 54193  53.2183  43.3425 0001336  86.6570 273.4575 15.08842216 15086,6917.874,95.437,540.663,538.814,0.0
54193.0,STARLINK-5263,PAYLOAD,2023-02-01 10:10:26,15.08844266,0.0001219,53.218,37.0965,93.9187,266.1944,5.7246e-05,6.23e-06,0.0,0 STARLINK-5263,1 54193U 22141AN  23032.42392036  .00000623  00000-0  57246-4 0  9990,2 54193  53.2180  37.0965 0001219  93.9187 266.1944 15.08844266 15296,6917.867,95.437,540.576,538.889,0.0
54193.0,STARLINK-5263,PAYLOAD,2023-02-02 03:39:41,15.08837786,0.0001481,53.2184,33.8273,91.1378,268.9784,-3.4526e-05,-8.37e-06,0.0,0 STARLINK-5263,1 54193U 22141AN  23033.15256905 -.00000837  00000-0 -34526-4 0  9990,2 54193  53.2184  33.8273 0001481  91.1378 268.9784 15.08837786 15403,6917.887,95.438,540.777,538.728,0.0
54193.0,STARLINK-5263,PAYLOAD,2023-02-02 06:50:28,15.08840434,0.0001342,53.2188,33.2331,83.8056,276.3089,-7.5481e-06,-4.08e-06,0.0,0 STARLINK-5263,1 54193U 22141AN  23033.28504660 -.00000408  00000-0 -75481-5 0  9998,2 54193  53.2188  33.2331 0001342  83.8056 276.3089 15.08840434 15194,6917.879,95.438,540.672,538.816,0.0
54193.0,STARLINK-5263,PAYLOAD,2023-02-03 06:41:15,15.08840212,0.0001237,53.2192,28.7728,88.4812,271.6322,-5.7608e-07,-2.97e-06,0.0,0 STARLINK-5263,1 54193U 22141AN  23034.27864714 -.00000297  00000-0 -57608-6 0  9995,2 54193  53.2192  28.7728 0001237  88.4812 271.6322 15.08840212 15576,6917.88,95.438,540.6,538.889,0.0
54193.0,STARLINK-5263,PAYLOAD,2023-02-04 09:42:48,15.08845245,0.0001261,53.2188,23.7173,91.3791,268.7346,7.3972e-05,8.9e-06,0.0,0 STARLINK-5263,1 54193U 22141AN  23035.40472340  .00000890  00000-0  73972-4 0  9998,2 54193  53.2188  23.7173 0001261  91.3791 268.7346 15.08845245 15749,6917.864,95.437,540.602,538.857,0.0
54193.0,STARLINK-5263,PAYLOAD,2023-02-05 03:12:03,15.0883298,6.41e-05,53.2193,20.4434,37.1576,322.946,-6.752e-05,-1.362e-05,0.0,0 STARLINK-5263,1 54193U 22141AN  23036.13337788 -.00001362  00000-0 -67520-4 0  9994,2 54193  53.2193  20.4434 0000641  37.1576 322.9460 15.08832980 15853,6917.902,95.438,540.21,539.323,0.0
54193.0,STARLINK-5263,PAYLOAD,2023-02-05 07:58:13,15.0881051,0.0001162,53.2195,19.5502,93.595,266.5175,0.00025313,3.74e-05,0.0,0 STARLINK-5263,1 54193U 22141AN  23036.33210251  .00003740  00000-0  25313-3 0  9994,2 54193  53.2195  19.5502 0001162  93.5950 266.5175 15.08810510 15885,6917.971,95.439,540.639,539.032,0.0
54193.0,STARLINK-5263,PAYLOAD,2023-02-05 22:16:41,15.08833123,0.0001305,53.2196,16.8743,95.4802,264.6339,-4.7361e-05,-1.041e-05,0.0,0 STARLINK-5263,1 54193U 22141AN  23036.92826162 -.00001041  00000-0 -47361-4 0  9995,2 54193  53.2196  16.8743 0001305  95.4802 264.6339 15.08833123 15740,6917.901,95.438,540.669,538.864,0.0
54193.0,STARLINK-5263,PAYLOAD,2023-02-06 03:02:50,15.08840069,0.0001287,53.219,15.9864,84.3533,275.7606,3.8831e-06,-2.26e-06,0.0,0 STARLINK-5263,1 54193U 22141AN  23037.12697595 -.00000226  00000-0  38831-5 0  9990,2 54193  53.2190  15.9864 0001287  84.3533 275.7606 15.08840069 16002,6917.88,95.438,540.636,538.855,0.0
54193.0,STARLINK-5263,PAYLOAD,2023-02-06 07:48:59,15.08849867,0.0001262,53.2202,15.0938,86.1252,273.9884,7.0884e-05,8.41e-06,0.0,0 STARLINK-5263,1 54193U 22141AN  23037.32568608  .00000841  00000-0  70884-4 0  9999,2 54193  53.2202  15.0938 0001262  86.1252 273.9884 15.08849867 16036,6917.85,95.437,540.588,538.842,0.0
54193.0,STARLINK-5263,PAYLOAD,2023-02-07 04:28:59,15.08856241,0.0001252,53.2194,11.2274,91.5215,268.5921,0.00017996,2.579e-05,0.0,0 STARLINK-5263,1 54193U 22141AN  23038.18679664  .00002579  00000-0  17996-3 0  9993,2 54193  53.2194  11.2274 0001252  91.5215 268.5921 15.08856241 15939,6917.831,95.437,540.562,538.83,0.0
54193.0,STARLINK-5263,PAYLOAD,2023-02-08 09:05:55,15.08856667,0.0001259,53.2193,5.8759,76.5486,283.5646,9.9592e-05,1.298e-05,0.0,0 STARLINK-5263,1 54193U 22141AN  23039.37911606  .00001298  00000-0  99592-4 0  9990,2 54193  53.2193   5.8759 0001259  76.5486 283.5646 15.08856667 16344,6917.829,95.437,540.565,538.823,0.0
54193.0,STARLINK-5263,PAYLOAD,2023-02-09 04:10:33,15.08855687,0.0001207,53.2201,2.3063,97.6038,262.5091,-2.3298e-05,-6.59e-06,0.0,0 STARLINK-5263,1 54193U 22141AN  23040.17400081 -.00000659  00000-0 -23298-4 0  9992,2 54193  53.2201   2.3063 0001207  97.6038 262.5091 15.08855687 16469,6917.832,95.437,540.532,538.862,0.0
54193.0,STARLINK-5263,PAYLOAD,2023-02-09 07:21:19,15.08859038,0.0001188,53.2198,1.7112,93.8134,266.2994,-7.2208e-06,-4.03e-06,0.0,0 STARLINK-5263,1 54193U 22141AN  23040.30647666 -.00000403  00000-0 -72208-5 0  9992,2 54193  53.2198   1.7112 0001188  93.8134 266.2994 15.08859038 16259,6917.822,95.436,540.509,538.865,0.0
54193.0,STARLINK-5263,PAYLOAD,2023-02-10 04:01:21,15.08850054,0.0001048,53.2192,357.8453,89.8045,270.3067,6.2587e-05,7.09e-06,0.0,0 STARLINK-5263,1 54193U 22141AN  23041.16760588  .00000709  00000-0  62587-4 0  9991,2 54193  53.2192 357.8453 0001048  89.8045 270.3067 15.08850054 16387,6917.85,95.437,540.44,538.99,0.0
